[{"OBJECT_NAME":"AEROCUBE 7","OBJECT_ID":"2015-058C","EPOCH":"2023-04-27T04:11:52.414080","MEAN_MOTION":14.79867806,"ECCENTRICITY":0.0159596,"INCLINATION":64.7715,"RA_OF_ASC_NODE":193.7732,"ARG_OF_PERICENTER":90.95,"MEAN_ANOMALY":270.9896,"EPHEMERIS_TYPE":0,"CLASSIFICATION_TYPE":"U","NORAD_CAT_ID":40966,"ELEMENT_SET_NO":999,"REV_AT_EPOCH":19533,"BSTAR":0.00031651,"MEAN_MOTION_DOT":2.807e-5,"MEAN_MOTION_DDOT":0},{"OBJECT_NAME":"ATHENOXAT 1","OBJECT_ID":"2015-077C","EPOCH":"2023-04-27T01:49:27.636384","MEAN_MOTION":15.47001161,"ECCENTRICITY":0.0005054,"INCLINATION":14.9826,"RA_OF_ASC_NODE":259.2683,"ARG_OF_PERICENTER":35.2465,"MEAN_ANOMALY":110.7537,"EPHEMERIS_TYPE":0,"CLASSIFICATION_TYPE":"U","NORAD_CAT_ID":41168,"ELEMENT_SET_NO":999,"REV_AT_EPOCH":40836,"BSTAR":0.0017235,"MEAN_MOTION_DOT":0.00092617,"MEAN_MOTION_DDOT":0},{"OBJECT_NAME":"GALASSIA","OBJECT_ID":"2015-077E","EPOCH":"2023-04-26T18:38:14.357184","MEAN_MOTION":15.35270832,"ECCENTRICITY":0.0008473,"INCLINATION":14.9868,"RA_OF_ASC_NODE":263.7517,"ARG_OF_PERICENTER":27.4815,"MEAN_ANOMALY":332.5956,"EPHEMERIS_TYPE":0,"CLASSIFICATION_TYPE":"U","NORAD_CAT_ID":41170,"ELEMENT_SET_NO":999,"REV_AT_EPOCH":40813,"BSTAR":0.0011508,"MEAN_MOTION_DOT":0.00041968,"MEAN_MOTION_DDOT":0},{"OBJECT_NAME":"VELOX-II","OBJECT_ID":"2015-077F","EPOCH":"2023-04-26T01:28:36.295680","MEAN_MOTION":15.25363191,"ECCENTRICITY":0.000587,"INCLINATION":14.9921,"RA_OF_ASC_NODE":4.1374,"ARG_OF_PERICENTER":173.7557,"MEAN_ANOMALY":186.2839,"EPHEMERIS_TYPE":0,"CLASSIFICATION_TYPE":"U","NORAD_CAT_ID":41171,"ELEMENT_SET_NO":999,"REV_AT_EPOCH":40722,"BSTAR":0.00083001,"MEAN_MOTION_DOT":0.00022479,"MEAN_MOTION_DDOT":0},{"OBJECT_NAME":"HORYU-4","OBJECT_ID":"2016-012D","EPOCH":"2023-04-26T19:28:22.781856","MEAN_MOTION":15.07192964,"ECCENTRICITY":0.0011432,"INCLINATION":31.0024,"RA_OF_ASC_NODE":153.6007,"ARG_OF_PERICENTER":89.371,"MEAN_ANOMALY":270.8237,"EPHEMERIS_TYPE":0,"CLASSIFICATION_TYPE":"U","NORAD_CAT_ID":41340,"ELEMENT_SET_NO":999,"REV_AT_EPOCH":39496,"BSTAR":0.00041631,"MEAN_MOTION_DOT":6.52e-5,"MEAN_MOTION_DDOT":0},{"OBJECT_NAME":"E-ST@R-II","OBJECT_ID":"2016-025D","EPOCH":"2023-04-27T03:42:50.948640","MEAN_MOTION":15.27027614,"ECCENTRICITY":0.0112041,"INCLINATION":98.1926,"RA_OF_ASC_NODE":313.3957,"ARG_OF_PERICENTER":275.9418,"MEAN_ANOMALY":82.8943,"EPHEMERIS_TYPE":0,"CLASSIFICATION_TYPE":"U","NORAD_CAT_ID":41459,"ELEMENT_SET_NO":999,"REV_AT_EPOCH":38510,"BSTAR":0.00072871,"MEAN_MOTION_DOT":0.00023214,"MEAN_MOTION_DDOT":0},{"OBJECT_NAME":"AAUSAT 4","OBJECT_ID":"2016-025E","EPOCH":"2023-04-27T03:36:14.883264","MEAN_MOTION":15.4669619,"ECCENTRICITY":0.0073607,"INCLINATION":98.1698,"RA_OF_ASC_NODE":324.2855,"ARG_OF_PERICENTER":235.0464,"MEAN_ANOMALY":274.0976,"EPHEMERIS_TYPE":0,"CLASSIFICATION_TYPE":"U","NORAD_CAT_ID":41460,"ELEMENT_SET_NO":999,"REV_AT_EPOCH":38585,"BSTAR":0.0013395,"MEAN_MOTION_DOT":0.00074845,"MEAN_MOTION_DDOT":0},{"OBJECT_NAME":"BEESAT-4","OBJECT_ID":"2016-040W","EPOCH":"2023-04-26T20:51:09.125568","MEAN_MOTION":15.52321327,"ECCENTRICITY":0.0006252,"INCLINATION":97.1654,"RA_OF_ASC_NODE":166.2948,"ARG_OF_PERICENTER":86.8096,"MEAN_ANOMALY":273.3872,"EPHEMERIS_TYPE":0,"CLASSIFICATION_TYPE":"U","NORAD_CAT_ID":41619,"ELEMENT_SET_NO":999,"REV_AT_EPOCH":36889,"BSTAR":0.0010387,"MEAN_MOTION_DOT":0.00063568,"MEAN_MOTION_DDOT":0},{"OBJECT_NAME":"RAVAN","OBJECT_ID":"2016-067B","EPOCH":"2023-04-26T16:52:00.368256","MEAN_MOTION":15.05094119,"ECCENTRICITY":0.0016116,"INCLINATION":98.0308,"RA_OF_ASC_NODE":269.039,"ARG_OF_PERICENTER":5.1411,"MEAN_ANOMALY":354.9976,"EPHEMERIS_TYPE":0,"CLASSIFICATION_TYPE":"U","NORAD_CAT_ID":41849,"ELEMENT_SET_NO":999,"REV_AT_EPOCH":35302,"BSTAR":0.00050642,"MEAN_MOTION_DOT":7.16e-5,"MEAN_MOTION_DDOT":0},{"OBJECT_NAME":"CELTEE 1","OBJECT_ID":"2016-067C","EPOCH":"2023-04-26T15:09:48.554208","MEAN_MOTION":15.01128266,"ECCENTRICITY":0.0004117,"INCLINATION":98.0471,"RA_OF_ASC_NODE":262.8368,"ARG_OF_PERICENTER":71.8527,"MEAN_ANOMALY":288.3144,"EPHEMERIS_TYPE":0,"CLASSIFICATION_TYPE":"U","NORAD_CAT_ID":41850,"ELEMENT_SET_NO":999,"REV_AT_EPOCH":35268,"BSTAR":0.00037478,"MEAN_MOTION_DOT":4.737e-5,"MEAN_MOTION_DDOT":0},{"OBJECT_NAME":"AEROCUBE 8D","OBJECT_ID":"2016-067E","EPOCH":"2023-04-26T16:21:00.944352","MEAN_MOTION":15.01479792,"ECCENTRICITY":0.0005228,"INCLINATION":98.0602,"RA_OF_ASC_NODE":261.9052,"ARG_OF_PERICENTER":50.9014,"MEAN_ANOMALY":309.2673,"EPHEMERIS_TYPE":0,"CLASSIFICATION_TYPE":"U","NORAD_CAT_ID":41852,"ELEMENT_SET_NO":999,"REV_AT_EPOCH":35263,"BSTAR":0.00043658,"MEAN_MOTION_DOT":5.581e-5,"MEAN_MOTION_DDOT":0},{"OBJECT_NAME":"AEROCUBE 8C","OBJECT_ID":"2016-067F","EPOCH":"2023-04-26T16:04:38.147808","MEAN_MOTION":15.01382865,"ECCENTRICITY":0.0008611,"INCLINATION":98.0438,"RA_OF_ASC_NODE":261.5752,"ARG_OF_PERICENTER":354.326,"MEAN_ANOMALY":5.7864,"EPHEMERIS_TYPE":0,"CLASSIFICATION_TYPE":"U","NORAD_CAT_ID":41853,"ELEMENT_SET_NO":999,"REV_AT_EPOCH":35262,"BSTAR":0.00039529,"MEAN_MOTION_DOT":5.036e-5,"MEAN_MOTION_DDOT":0},{"OBJECT_NAME":"PROMETHEUS 2-1","OBJECT_ID":"2016-067G","EPOCH":"2023-04-26T15:22:54.021792","MEAN_MOTION":15.04666,"ECCENTRICITY":0.0017272,"INCLINATION":98.0602,"RA_OF_ASC_NODE":264.125,"ARG_OF_PERICENTER":32.5319,"MEAN_ANOMALY":327.6967,"EPHEMERIS_TYPE":0,"CLASSIFICATION_TYPE":"U","NORAD_CAT_ID":41854,"ELEMENT_SET_NO":999,"REV_AT_EPOCH":35273,"BSTAR":0.00058673,"MEAN_MOTION_DOT":8.215e-5,"MEAN_MOTION_DDOT":0},{"OBJECT_NAME":"PROMETHEUS 2-3","OBJECT_ID":"2016-067H","EPOCH":"2023-04-26T15:12:30.501504","MEAN_MOTION":15.04649234,"ECCENTRICITY":0.0014734,"INCLINATION":98.0522,"RA_OF_ASC_NODE":264.0312,"ARG_OF_PERICENTER":42.0337,"MEAN_ANOMALY":318.2016,"EPHEMERIS_TYPE":0,"CLASSIFICATION_TYPE":"U","NORAD_CAT_ID":41855,"ELEMENT_SET_NO":999,"REV_AT_EPOCH":35273,"BSTAR":0.0006468,"MEAN_MOTION_DOT":9.053e-5,"MEAN_MOTION_DDOT":0},{"OBJECT_NAME":"INS-1B","OBJECT_ID":"2017-008G","EPOCH":"2023-04-26T18:22:15.586752","MEAN_MOTION":15.50715044,"ECCENTRICITY":0.0006191,"INCLINATION":97.2053,"RA_OF_ASC_NODE":177.1246,"ARG_OF_PERICENTER":176.4143,"MEAN_ANOMALY":183.7155,"EPHEMERIS_TYPE":0,"CLASSIFICATION_TYPE":"U","NORAD_CAT_ID":41954,"ELEMENT_SET_NO":999,"REV_AT_EPOCH":34489,"BSTAR":0.00098201,"MEAN_MOTION_DOT":0.00056704,"MEAN_MOTION_DDOT":0},{"OBJECT_NAME":"DIDO-2","OBJECT_ID":"2017-008BE","EPOCH":"2023-04-27T03:04:17.069376","MEAN_MOTION":15.37829902,"ECCENTRICITY":0.0006056,"INCLINATION":97.2066,"RA_OF_ASC_NODE":174.0713,"ARG_OF_PERICENTER":202.2876,"MEAN_ANOMALY":157.8107,"EPHEMERIS_TYPE":0,"CLASSIFICATION_TYPE":"U","NORAD_CAT_ID":42000,"ELEMENT_SET_NO":999,"REV_AT_EPOCH":34408,"BSTAR":0.00055197,"MEAN_MOTION_DOT":0.00020481,"MEAN_MOTION_DDOT":0}]
