AEROCUBE 7              
1 40966U 15058C   23117.17491220  .00002807  00000+0  31651-3 0  9999
2 40966  64.7715 193.7732 0159596  90.9500 270.9896 14.79867806195335
ATHENOXAT 1             
1 41168U 15077C   23117.07601431  .00092617  00000+0  17235-2 0  9990
2 41168  14.9826 259.2683 0005054  35.2465 110.7537 15.47001161408367
GALASSIA                
1 41170U 15077E   23116.77655506  .00041968  00000+0  11508-2 0  9991
2 41170  14.9868 263.7517 0008473  27.4815 332.5956 15.35270832408136
VELOX-II                
1 41171U 15077F   23116.06153120  .00022479  00000+0  83001-3 0  9993
2 41171  14.9921   4.1374 0005870 173.7557 186.2839 15.25363191407224
HORYU-4                 
1 41340U 16012D   23116.81137479  .00006520  00000+0  41631-3 0  9995
2 41340  31.0024 153.6007 0011432  89.3710 270.8237 15.07192964394969
E-ST@R-II               
1 41459U 16025D   23117.15475635  .00023214  00000+0  72871-3 0  9996
2 41459  98.1926 313.3957 0112041 275.9418  82.8943 15.27027614385102
AAUSAT 4                
1 41460U 16025E   23117.15017226  .00074845  00000+0  13395-2 0  9997
2 41460  98.1698 324.2855 0073607 235.0464 274.0976 15.46696190385855
BEESAT-4                
1 41619U 16040W   23116.86885562  .00063568  00000+0  10387-2 0  9991
2 41619  97.1654 166.2948 0006252  86.8096 273.3872 15.52321327368890
RAVAN                   
1 41849U 16067B   23116.70278204  .00007160  00000+0  50642-3 0  9992
2 41849  98.0308 269.0390 0016116   5.1411 354.9976 15.05094119353023
CELTEE 1                
1 41850U 16067C   23116.63181197  .00004737  00000+0  37478-3 0  9999
2 41850  98.0471 262.8368 0004117  71.8527 288.3144 15.01128266352683
AEROCUBE 8D             
1 41852U 16067E   23116.68126093  .00005581  00000+0  43658-3 0  9995
2 41852  98.0602 261.9052 0005228  50.9014 309.2673 15.01479792352632
AEROCUBE 8C             
1 41853U 16067F   23116.66988597  .00005036  00000+0  39529-3 0  9996
2 41853  98.0438 261.5752 0008611 354.3260   5.7864 15.01382865352629
PROMETHEUS 2-1          
1 41854U 16067G   23116.64090303  .00008215  00000+0  58673-3 0  9997
2 41854  98.0602 264.1250 0017272  32.5319 327.6967 15.04666000352739
PROMETHEUS 2-3          
1 41855U 16067H   23116.63368636  .00009053  00000+0  64680-3 0  9990
2 41855  98.0522 264.0312 0014734  42.0337 318.2016 15.04649234352736
INS-1B                  
1 41954U 17008G   23116.76545818  .00056704  00000+0  98201-3 0  9990
2 41954  97.2053 177.1246 0006191 176.4143 183.7155 15.50715044344892
DIDO-2                  
1 42000U 17008BE  23117.12797534  .00020481  00000+0  55197-3 0  9998
2 42000  97.2066 174.0713 0006056 202.2876 157.8107 15.37829902344089
